GLOBALSTAR M068 [-]     
1 32266U 07048D   17324.82880521 -.00000114  00000-0 -53309-4 0  9991
2 32266  51.9884  90.6871 0001776 123.6078  12.2176 12.62691278468488
GLOBALSTAR M079 [+]     
1 37188U 10054A   17324.45763302 -.00000104  00000-0  72150-6 0  9991
2 37188  52.0042 279.1381 0000757  23.1098 134.2064 12.62269530327856
GLOBALSTAR M074 [+]     
1 37189U 10054B   17324.30987331 -.00000104  00000-0  87016-6 0  9993
2 37189  52.0019 279.3428 0000606   5.1199  79.2429 12.62267026327806
GLOBALSTAR M076 [+]     
1 37190U 10054C   17324.81187726 -.00000102  00000-0  11556-4 0  9993
2 37190  52.0033 277.7291 0000832  18.1566  67.4262 12.62264221327906
GLOBALSTAR M077 [+]     
1 37191U 10054D   17324.33961265 -.00000081  00000-0  12479-3 0  9999
2 37191  52.0069 235.2382 0000930  46.3741 113.1597 12.62266300328128
GLOBALSTAR M075 [+]     
1 37192U 10054E   17324.52250633 -.00000100  00000-0  20765-4 0  9991
2 37192  51.9956 322.3964 0000788 357.1704 154.6851 12.62267709327103
GLOBALSTAR M073 [+]     
1 37193U 10054F   17324.90136053 -.00000072  00000-0  17838-3 0  9997
2 37193  52.0056 232.9739 0001057  58.5819  15.9387 12.62263952328663
GLOBALSTAR M083 [+]     
1 37739U 11033A   17324.13776501 -.00000078  00000-0  14475-3 0  9994
2 37739  51.9840 187.8077 0000861 100.9427  41.2777 12.62266602297890
GLOBALSTAR M088 [+]     
1 37740U 11033B   17324.57283439 -.00000128  00000-0 -13265-3 0  9990
2 37740  51.9729  94.3076 0000563 143.8743 295.8772 12.62242139293353
GLOBALSTAR M091 [+]     
1 37741U 11033C   17324.75815866 -.00000108  00000-0 -21390-4 0  9993
2 37741  52.0014  52.3429 0000416 169.2478 332.6581 12.62262149294209
GLOBALSTAR M085 [+]     
1 37742U 11033D   17324.50778144 -.00000096  00000-0  44745-4 0  9998
2 37742  51.9886   6.5853 0000203 137.0939   8.4741 12.62262253294916
GLOBALSTAR M081 [+]     
1 37743U 11033E   17324.69510363 -.00000088  00000-0  88419-4 0  9993
2 37743  51.9977   7.0962 0000211 273.8216 242.9514 12.62268544294979
GLOBALSTAR M089 [+]     
1 37744U 11033F   17324.33399821 -.00000099  00000-0  25401-4 0  9993
2 37744  51.9940 322.9424 0000646  52.1183  81.9443 12.62267429295508
GLOBALSTAR M084 [+]     
1 38040U 11080A   17324.19339583 -.00000072  00000-0  17504-3 0  9993
2 38040  51.9990 189.2148 0001319  73.8179  80.2502 12.62267091273636
GLOBALSTAR M080 [+]     
1 38041U 11080B   17324.78297910 -.00000081  00000-0  12455-3 0  9996
2 38041  52.0042 188.0522 0001324  69.4366   6.5806 12.62267143273697
GLOBALSTAR M082 [+]     
1 38042U 11080C   17324.01912220 -.00000107  00000-0 -18547-4 0  9990
2 38042  52.0049 145.5373 0000944 116.0627  25.8399 12.62263675274275
GLOBALSTAR M092 [+]     
1 38043U 11080D   17324.31145986 -.00000083  00000-0  11679-3 0  9991
2 38043  52.0082 234.8495 0001157  70.0154  82.7737 12.62268776272825
GLOBALSTAR M090 [+]     
1 38044U 11080E   17324.57422925 -.00000105  00000-0 -92508-5 0  9999
2 38044  51.9867 141.2182 0000922 119.2530 267.5985 12.62263108274354
GLOBALSTAR M086 [+]     
1 38045U 11080F   17324.85194958 -.00000109  00000-0 -31402-4 0  9992
2 38045  51.9872 140.7110 0001176  18.6976  70.1728 12.62269831274435
GLOBALSTAR M097 [+]     
1 39072U 13005A   17324.54182303 -.00000095  00000-0  50511-4 0  9994
2 39072  52.0064  53.3684 0000200 166.4716 193.6156 12.62263713221629
GLOBALSTAR M093 [+]     
1 39073U 13005B   17324.51579395 -.00000113  00000-0 -50364-4 0  9991
2 39073  51.9830  51.1908 0000482 196.2458 163.8393 12.62264493221583
GLOBALSTAR M094 [+]     
1 39074U 13005C   17324.59467785 -.00000100  00000-0  19376-4 0  9992
2 39074  51.9970 322.5609 0000438 357.5647   2.5218 12.62262339223118
GLOBALSTAR M096 [+]     
1 39075U 13005D   17324.52907484 -.00000093  00000-0  61882-4 0  9991
2 39075  52.0092   9.1171 0000089 238.4202 121.6657 12.62268060222356
GLOBALSTAR M078 [+]     
1 39076U 13005E   17324.58161161 -.00000114  00000-0 -57932-4 0  9998
2 39076  51.9882  96.6517 0000720 140.9962 219.0956 12.62261799220870
GLOBALSTAR M095 [+]     
1 39077U 13005F   17324.84571479 -.00000122  00000-0 -10271-3 0  9998
2 39077  51.9794  95.0037 0001031 151.5144 208.5779 12.62267933220905
